#aP2005  6 29  0  0  0.00000000      96 ORBIT IGb00 HLM  IGS
## 1329 259200.00000000   900.00000000 53550 0.0000000000000
+   29     1  2  3  4  5  6  7  8  9 10 11 13 14 15 16 18 19
+         20 21 22 23 24 25 26 27 28 29 30 31  0  0  0  0  0
+          0  0  0  0  0  0  0  0  0  0  0  0  0  0  0  0  0
+          0  0  0  0  0  0  0  0  0  0  0  0  0  0  0  0  0
+          0  0  0  0  0  0  0  0  0  0  0  0  0  0  0  0  0
++         3  3  3  3  3  3  3  3  3  3  3  3  3  3  3  3  4
++         3  3  3  3  3  3  3  3  4  5  3  3  0  0  0  0  0
++         0  0  0  0  0  0  0  0  0  0  0  0  0  0  0  0  0
++         0  0  0  0  0  0  0  0  0  0  0  0  0  0  0  0  0
++         0  0  0  0  0  0  0  0  0  0  0  0  0  0  0  0  0
%c cc cc ccc ccc cccc cccc cccc cccc ccccc ccccc ccccc ccccc
%c cc cc ccc ccc cccc cccc cccc cccc ccccc ccccc ccccc ccccc
%f  0.0000000  0.000000000  0.00000000000  0.000000000000000
%f  0.0000000  0.000000000  0.00000000000  0.000000000000000
%i    0    0    0    0      0      0      0      0         0
%i    0    0    0    0      0      0      0      0         0
/* FINAL ORBIT COMBINATION FROM WEIGHTED AVERAGE OF:        
/* cod emr esa gfz jpl mit ngs sio                          
/* REFERENCED TO IGS TIME AND TO WEIGHTED MEAN POLE:        
/* CLK ANT Z-OFFSET (M): II/IIA 1.023; IIR 0.000            
*  2005  6 29  1  0  0.00000000
P  1  14737.915255 -16553.825693 -14426.722335    410.980341
P  2 -20077.448366  13454.808794  10569.420334    -26.270163
P  3  10977.112920 -21953.152380   9664.691386     12.817455
P  4 -26162.601095   4812.834765  -2766.278385    124.814648
P  5   8112.518971  20790.380275 -14700.305654    110.339887
P  6   8934.650109  18311.070911  17186.598180    667.313775
P  7 -15951.882165   2217.461002 -20671.817549    197.005258
P  8 -24762.909871   -967.551221   9884.949528    -33.473142
P  9  -1133.712951  16250.505192 -21428.771420    -50.206019
P 10  -9550.991972  11377.206186  21931.343845     66.068085
P 11    155.787764 -17352.219718 -20103.157253    240.536571
P 13  -8703.316730 -16140.221882  19165.301202      3.040382
P 14  15456.272255  -2922.313455 -21347.058579    -28.796673
P 15  25908.221742   -728.825777   6371.883244    452.140524
P 16  12837.118021  -8617.176236  21687.676439      4.057264
P 18  19862.089004  17490.712650  -3552.269586   -167.062643
P 19   7719.049910 -25414.904793   -361.851215    -23.224885
P 20 -10911.841327 -21432.278617 -11371.825033    -59.656157
P 21  18926.794697   8092.571502  17056.843508    110.987306
P 22  21001.992598   8638.029713 -13618.243685     27.643338
P 23  -1920.858533 -23945.978713  11086.121739    189.459946
P 24 -21178.192988  -5706.223851 -14844.564542     27.562972
P 25  24723.895389  -9807.145401    458.685026     96.617725
P 26  -7291.727109  25173.365543    625.593076     22.523202
P 27 -17841.733482  -7869.502981  18767.197694      5.139782
P 28 -21673.185014 -10161.552817 -11614.903527     44.917903
P 29 -10366.101823  23371.816322   7064.780862    149.801631
P 30  17667.284973  19624.466484  -3659.125222    270.604367
P 31 -14888.169145  -6249.011524 -21422.730140      1.323990
*  2005  6 29  1 15  0.00000000
P  1  14434.533534 -14777.979418 -16490.836927    410.983117
P  2 -21208.876942  13540.450388   7996.890478    -26.270282
P  3  11131.898298 -20646.083812  12066.495271     12.821972
P  4 -25781.424272   4446.046411  -5537.341377    124.792091
P  5   6591.939779  19871.799988 -16612.197176    110.343070
P  6   8381.513133  20079.319018  15363.865424    667.344765
P  7 -15608.513815   -247.323022 -21053.060781    197.026198
P  8 -23575.924958  -1482.536939  12339.685793    -33.473978
P  9  -3334.897820  16953.516359 -20589.968180    -50.209055
P 10 -11389.746204   9654.312264  21905.348571     66.068026
P 11   2275.320336 -18178.583392 -19205.447395    240.539955
P 13  -8125.829661 -18167.990113  17547.545187      3.041713
P 14  14951.473367   -494.721520 -21895.070754    -28.796595
P 15  25086.322021   -310.922643   9025.516734    452.145161
P 16  14600.634297  -6940.445767  21171.113539      4.057791
P 18  19875.631299  17831.438138   -725.651117   -167.065266
P 19   7940.157229 -25239.498272   2486.106392    -23.225506
P 20  -9715.439810 -20636.422849 -13705.675856    -59.654425
P 21  17007.575898   8759.989364  18631.639508    110.989108
P 22  21863.638368   9821.394424 -11286.237988     27.644540
P 23  -1457.343470 -25010.742420   8523.465472    189.458064
P 24 -19435.079757  -6336.103617 -16794.792183     27.564790
P 25  24694.270717  -9488.212417  -2368.412944     96.619751
P 26  -7448.841082  24847.305567   3555.635541     22.522299
P 27 -15910.304727  -8717.642404  20085.958386      5.140543
P 28 -22411.872785 -11142.371091  -9126.746875     44.917432
P 29 -10361.845554  22419.635436   9757.355224    149.825319
P 30  17066.524089  19487.637747  -6395.134892    270.621955
P 31 -14448.167121  -8568.188019 -20884.304310      1.325548
*  2005  6 29  1 30  0.00000000
P  1  14189.533900 -12771.367100 -18267.045969    410.984683
P  2 -22051.527268  13576.557928   5284.234972    -26.270517
P  3  11327.086700 -19087.660639  14256.302507     12.825188
P  4 -25132.182702   3955.593798  -8215.014037    124.769371
P  5   4865.059552  18916.097953 -18243.502483    110.346951
P  6   7941.111133  21656.205895  13278.990630    667.375703
P  7 -15378.712479  -2746.417821 -21057.341255    197.047022
P  8 -22165.945502  -2149.276821  14584.194790    -33.474474
P  9  -5397.850673  17727.885366 -19409.309866    -50.211180
P 10 -13298.731199   8051.985477  21500.297381     66.068750
P 11   4254.504439 -19038.703423 -17976.590524    240.543055
P 13  -7698.258054 -20026.012440  15626.905731      3.043165
P 14  14575.509352   1997.193789 -22064.535561    -28.796463
P 15  24008.402557    235.783485  11525.561356    452.150415
P 16  16388.498337  -5408.449213  20293.420190      4.058361
P 18  19668.766189  17959.497474   2113.253055   -167.068028
P 19   8101.640449 -24763.621775   5291.357131    -23.226202
P 20  -8283.698964 -19748.490556 -15804.981738    -59.652803
P 21  14970.775443   9576.584080  19890.965370    110.991534
P 22  22580.020480  10772.777527  -8758.493938     27.645651
P 23  -1096.660813 -25801.554055   5812.493468    189.456020
P 24 -17529.870063  -7122.548105 -18452.577231     27.567178
P 25  24396.718153  -9025.112946  -5154.708728     96.620886
P 26  -7568.006597  24199.359219   6421.770142     22.521496
P 27 -13909.877982  -9719.759478  21078.063882      5.140843
P 28 -22978.206716 -11895.114240  -6482.902399     44.917067
P 29 -10367.758581  21177.478808  12281.941969    149.849042
P 30  16221.076155  19198.456792  -9022.591874    270.639335
P 31 -14129.168441 -10830.413122 -19996.117458      1.327988
*  2005  6 29  1 45  0.00000000
P  1  14033.834731 -10569.878283 -19723.975487    410.987295
P  2 -22604.391889  13525.336579   2479.252259    -26.270580
P  3  11591.338155 -17305.871423  16195.708032     12.828559
P  4 -24240.800900   3314.070165 -10754.037476    124.746815
P  5   2951.270877  17961.183066 -19566.681547    110.349911
P  6   7591.341466  23007.341931  10967.018767    667.406452
P  7 -15267.207933  -5230.598474 -20685.024665    197.067630
P  8 -20570.802981  -2985.965710  16579.390567    -33.475567
P  9  -7289.387247  18542.267937 -17904.819309    -50.213374
P 10 -15235.991366   6597.914175  20724.122171     66.069752
P 11   6065.231734 -19900.597293 -16437.269127    240.546617
P 13  -7401.196044 -21672.082725  13436.798071      3.044368
P 14  14338.490351   4503.425665 -21852.599750    -28.796133
P 15  22705.389216    935.937044  13828.832185    452.155316
P 16  18157.578600  -4041.142070  19069.627355      4.058584
P 18  19218.307118  17903.985606   4916.429348   -167.070997
P 19   8241.007243 -23988.599883   8005.819554    -23.226651
P 20  -6625.749478 -18810.454438 -17634.010655    -59.651034
P 21  12861.006093  10543.990465  20812.345089    110.993342
P 22  23112.536926  11501.682464  -6079.088105     27.647036
P 23   -806.142312 -26297.038306   3000.458238    189.453876
P 24 -15507.752975  -8073.198689 -19788.101762     27.570305
P 25  23853.929177  -8389.376971  -7851.827686     96.620864
P 26  -7689.155162  23234.711889   9172.163413     22.520436
P 27 -11884.125714 -10869.937808  21727.149866      5.141490
P 28 -23337.483011 -12435.853646  -3728.872035     44.916742
P 29 -10421.107637  19666.456876  14595.794523    149.873190
P 30  15124.773627  18793.977626 -11497.268740    270.656944
P 31 -13923.990047 -12991.460713 -18771.963493      1.331231
EOF
